[{"OBJECT_NAME":"STARLINK-5607","OBJECT_ID":"2023-014P","EPOCH":"2026-03-09T23:07:47.129088","MEAN_MOTION":14.98339315,"ECCENTRICITY":0.00036319,"INCLINATION":69.9998,"RA_OF_ASC_NODE":63.8818,"ARG_OF_PERICENTER":270.1133,"MEAN_ANOMALY":89.961,"EPHEMERIS_TYPE":0,"CLASSIFICATION_TYPE":"U","NORAD_CAT_ID":55404,"ELEMENT_SET_NO":999,"REV_AT_EPOCH":17209,"BSTAR":-2.5546071e-5,"MEAN_MOTION_DOT":-3.98e-6,"MEAN_MOTION_DDOT":0},{"OBJECT_NAME":"DEMOSAT\/FALCON 1","OBJECT_ID":"2008-048A","EPOCH":"2026-03-09T20:26:53.902464","MEAN_MOTION":14.96189084,"ECCENTRICITY":0.00103169,"INCLINATION":9.3439,"RA_OF_ASC_NODE":185.2154,"ARG_OF_PERICENTER":2.5079,"MEAN_ANOMALY":357.5172,"EPHEMERIS_TYPE":0,"CLASSIFICATION_TYPE":"U","NORAD_CAT_ID":33393,"ELEMENT_SET_NO":999,"REV_AT_EPOCH":94801,"BSTAR":0.00032870725,"MEAN_MOTION_DOT":4.521e-5,"MEAN_MOTION_DDOT":0}]
